start=new Date('2021-11-11T00:00:00.000Z').valueOf();
sats=[{"TLE_LINE1":"1 46762U 20074Z   21314.67699651  .01579803  15143-2  27038-2 0  9999","REV_AT_EPOCH":"5883","OBJECT_TYPE":"PAYLOAD","SITE":"AFETR","DECAY_DATE":null,"APOAPSIS":"270.915","EPHEMERIS_TYPE":"0","RA_OF_ASC_NODE":"194.3963","COUNTRY_CODE":"US","TLE_LINE2":"2 46762  53.0552 194.3963 0003987 224.6186 135.5238 16.02223126 58834","OBJECT_ID":"2020-074Z","MEAN_MOTION":"16.02223126","LAUNCH_DATE":"2020-10-24","EPOCH":"2021-11-10T16:14:52.498464","MEAN_ELEMENT_THEORY":"SGP4","ELEMENT_SET_NO":"999","PERIOD":"89.875","OBJECT_NAME":"STARLINK-1901","MEAN_ANOMALY":"135.5238","RCS_SIZE":"LARGE","INCLINATION":"53.0552","NORAD_CAT_ID":"46762","SEMIMAJOR_AXIS":"6646.401","BSTAR":"0.00270380000000","FILE":"3210818","CLASSIFICATION_TYPE":"U","REF_FRAME":"TEME","TIME_SYSTEM":"UTC","CENTER_NAME":"EARTH","PERIAPSIS":"265.616","MEAN_MOTION_DOT":"0.01579803","GP_ID":"189398572","MEAN_MOTION_DDOT":"0.0015143000000","ECCENTRICITY":"0.00039870","ARG_OF_PERICENTER":"224.6186"},{"SEMIMAJOR_AXIS":"6925.308","INCLINATION":"53.0532","NORAD_CAT_ID":"46763","RCS_SIZE":"LARGE","MEAN_ANOMALY":"289.4479","OBJECT_NAME":"STARLINK-1902","PERIOD":"95.591","ELEMENT_SET_NO":"999","REF_FRAME":"TEME","CLASSIFICATION_TYPE":"U","FILE":"3211038","BSTAR":"0.00022300000000","MEAN_MOTION_DDOT":"0.0000000000000","GP_ID":"189423885","PERIAPSIS":"546.213","MEAN_MOTION_DOT":"0.00003043","CENTER_NAME":"EARTH","TIME_SYSTEM":"UTC","ARG_OF_PERICENTER":"70.6660","ECCENTRICITY":"0.00013870","SITE":"AFETR","OBJECT_TYPE":"PAYLOAD","REV_AT_EPOCH":"5835","TLE_LINE1":"1 46763U 20074AA  21314.89292293  .00003043  00000-0  22300-3 0  9994","RA_OF_ASC_NODE":"228.6222","EPHEMERIS_TYPE":"0","APOAPSIS":"548.134","DECAY_DATE":null,"MEAN_ELEMENT_THEORY":"SGP4","EPOCH":"2021-11-10T21:25:48.541152","LAUNCH_DATE":"2020-10-24","MEAN_MOTION":"15.06413154","TLE_LINE2":"2 46763  53.0532 228.6222 0001387  70.6660 289.4479 15.06413154 58358","OBJECT_ID":"2020-074AA","COUNTRY_CODE":"US"},{"ECCENTRICITY":"0.00013570","ARG_OF_PERICENTER":"70.7665","TIME_SYSTEM":"UTC","MEAN_MOTION_DOT":"0.00003678","PERIAPSIS":"546.247","CENTER_NAME":"EARTH","GP_ID":"189424613","MEAN_MOTION_DDOT":"0.0000000000000","BSTAR":"0.00026565000000","FILE":"3211038","CLASSIFICATION_TYPE":"U","REF_FRAME":"TEME","PERIOD":"95.592","ELEMENT_SET_NO":"999","OBJECT_NAME":"STARLINK-1903","MEAN_ANOMALY":"289.3470","RCS_SIZE":"LARGE","NORAD_CAT_ID":"46764","INCLINATION":"53.0526","SEMIMAJOR_AXIS":"6925.322","COUNTRY_CODE":"US","OBJECT_ID":"2020-074AB","TLE_LINE2":"2 46764  53.0526 228.3946 0001357  70.7665 289.3470 15.06408662 58364","MEAN_MOTION":"15.06408662","LAUNCH_DATE":"2020-10-24","EPOCH":"2021-11-10T22:30:50.087808","MEAN_ELEMENT_THEORY":"SGP4","DECAY_DATE":null,"APOAPSIS":"548.127","EPHEMERIS_TYPE":"0","RA_OF_ASC_NODE":"228.3946","TLE_LINE1":"1 46764U 20074AB  21314.93807972  .00003678  00000-0  26565-3 0  9997","REV_AT_EPOCH":"5836","OBJECT_TYPE":"PAYLOAD","SITE":"AFETR"},{"EPOCH":"2021-11-10T22:14:55.725504","LAUNCH_DATE":"2020-10-24","MEAN_ELEMENT_THEORY":"SGP4","COUNTRY_CODE":"US","TLE_LINE2":"2 46765  53.0568 228.4509 0001640  69.3258 290.7906 15.06399936 58356","OBJECT_ID":"2020-074AC","MEAN_MOTION":"15.06399936","RA_OF_ASC_NODE":"228.4509","APOAPSIS":"548.350","DECAY_DATE":null,"EPHEMERIS_TYPE":"0","OBJECT_TYPE":"PAYLOAD","REV_AT_EPOCH":"5835","TLE_LINE1":"1 46765U 20074AC  21314.92703386  .00001763  00000-0  13720-3 0  9993","SITE":"AFETR","ARG_OF_PERICENTER":"69.3258","ECCENTRICITY":"0.00016400","GP_ID":"189424058","MEAN_MOTION_DOT":"0.00001763","PERIAPSIS":"546.078","CENTER_NAME":"EARTH","MEAN_MOTION_DDOT":"0.0000000000000","TIME_SYSTEM":"UTC","FILE":"3211038","REF_FRAME":"TEME","CLASSIFICATION_TYPE":"U","BSTAR":"0.00013720000000","INCLINATION":"53.0568","NORAD_CAT_ID":"46765","RCS_SIZE":"LARGE","SEMIMAJOR_AXIS":"6925.349","OBJECT_NAME":"STARLINK-1906","PERIOD":"95.592","ELEMENT_SET_NO":"999","MEAN_ANOMALY":"290.7906"},{"SITE":"AFETR","REV_AT_EPOCH":"5836","TLE_LINE1":"1 46766U 20074AD  21314.91965506  .00001555  00000-0  12324-3 0  9995","OBJECT_TYPE":"PAYLOAD","RA_OF_ASC_NODE":"228.4903","EPHEMERIS_TYPE":"0","DECAY_DATE":null,"APOAPSIS":"548.462","MEAN_ELEMENT_THEORY":"SGP4","LAUNCH_DATE":"2020-10-24","EPOCH":"2021-11-10T22:04:18.197184","TLE_LINE2":"2 46766  53.0520 228.4903 0001870  66.7588 293.3598 15.06415091 58363","OBJECT_ID":"2020-074AD","MEAN_MOTION":"15.06415091","COUNTRY_CODE":"US","SEMIMAJOR_AXIS":"6925.302","RCS_SIZE":"LARGE","INCLINATION":"53.0520","NORAD_CAT_ID":"46766","MEAN_ANOMALY":"293.3598","PERIOD":"95.591","ELEMENT_SET_NO":"999","OBJECT_NAME":"STARLINK-1916","CLASSIFICATION_TYPE":"U","REF_FRAME":"TEME","FILE":"3211038","BSTAR":"0.00012324000000","MEAN_MOTION_DDOT":"0.0000000000000","MEAN_MOTION_DOT":"0.00001555","PERIAPSIS":"545.872","CENTER_NAME":"EARTH","GP_ID":"189423635","TIME_SYSTEM":"UTC","ARG_OF_PERICENTER":"66.7588","ECCENTRICITY":"0.00018700"},{"SEMIMAJOR_AXIS":"6925.338","INCLINATION":"53.0524","NORAD_CAT_ID":"46767","RCS_SIZE":"LARGE","MEAN_ANOMALY":"291.4759","OBJECT_NAME":"STARLINK-1917","ELEMENT_SET_NO":"999","PERIOD":"95.592","REF_FRAME":"TEME","CLASSIFICATION_TYPE":"U","FILE":"3211038","BSTAR":"0.00023930000000","MEAN_MOTION_DDOT":"0.0000000000000","GP_ID":"189424385","PERIAPSIS":"545.904","CENTER_NAME":"EARTH","MEAN_MOTION_DOT":"0.00003285","TIME_SYSTEM":"UTC","ARG_OF_PERICENTER":"68.6429","ECCENTRICITY":"0.00018750","SITE":"AFETR","OBJECT_TYPE":"PAYLOAD","TLE_LINE1":"1 46767U 20074AE  21314.94914544  .00003285  00000-0  23930-3 0  9992","REV_AT_EPOCH":"5836","RA_OF_ASC_NODE":"228.3468","EPHEMERIS_TYPE":"0","APOAPSIS":"548.501","DECAY_DATE":null,"MEAN_ELEMENT_THEORY":"SGP4","EPOCH":"2021-11-10T22:46:46.166016","LAUNCH_DATE":"2020-10-24","TLE_LINE2":"2 46767  53.0524 228.3468 0001875  68.6429 291.4759 15.06403567 58366","MEAN_MOTION":"15.06403567","OBJECT_ID":"2020-074AE","COUNTRY_CODE":"US"},{"RA_OF_ASC_NODE":"228.3321","EPHEMERIS_TYPE":"0","APOAPSIS":"548.167","DECAY_DATE":null,"SITE":"AFETR","OBJECT_TYPE":"PAYLOAD","TLE_LINE1":"1 46768U 20074AF  21314.95283823  .00005167  00000-0  36538-3 0  9992","REV_AT_EPOCH":"5836","MEAN_ELEMENT_THEORY":"SGP4","EPOCH":"2021-11-10T22:52:05.223072","LAUNCH_DATE":"2020-10-24","OBJECT_ID":"2020-074AF","TLE_LINE2":"2 46768  53.0539 228.3321 0001443  71.5512 288.5633 15.06414823 58363","MEAN_MOTION":"15.06414823","COUNTRY_CODE":"US","REF_FRAME":"TEME","CLASSIFICATION_TYPE":"U","FILE":"3211038","BSTAR":"0.00036538000000","SEMIMAJOR_AXIS":"6925.303","INCLINATION":"53.0539","NORAD_CAT_ID":"46768","RCS_SIZE":"LARGE","MEAN_ANOMALY":"288.5633","OBJECT_NAME":"STARLINK-1918","PERIOD":"95.591","ELEMENT_SET_NO":"999","ARG_OF_PERICENTER":"71.5512","ECCENTRICITY":"0.00014430","MEAN_MOTION_DDOT":"0.0000000000000","GP_ID":"189425113","PERIAPSIS":"546.169","CENTER_NAME":"EARTH","MEAN_MOTION_DOT":"0.00005167","TIME_SYSTEM":"UTC"},{"REF_FRAME":"TEME","CLASSIFICATION_TYPE":"U","FILE":"3210682","BSTAR":"0.02249400000000","SEMIMAJOR_AXIS":"6909.233","INCLINATION":"53.0521","NORAD_CAT_ID":"46769","RCS_SIZE":"LARGE","MEAN_ANOMALY":"315.9543","OBJECT_NAME":"STARLINK-1919","ELEMENT_SET_NO":"999","PERIOD":"95.259","ARG_OF_PERICENTER":"44.1577","ECCENTRICITY":"0.00016220","MEAN_MOTION_DDOT":"0.0000000000000","GP_ID":"189371761","PERIAPSIS":"529.978","CENTER_NAME":"EARTH","MEAN_MOTION_DOT":"0.00409857","TIME_SYSTEM":"UTC","RA_OF_ASC_NODE":"231.1914","EPHEMERIS_TYPE":"0","APOAPSIS":"532.219","DECAY_DATE":null,"SITE":"AFETR","OBJECT_TYPE":"PAYLOAD","TLE_LINE1":"1 46769U 20074AG  21314.29953117  .00409857  00000-0  22494-1 0  9998","REV_AT_EPOCH":"5799","MEAN_ELEMENT_THEORY":"SGP4","EPOCH":"2021-11-10T07:11:19.493088","LAUNCH_DATE":"2020-10-24","MEAN_MOTION":"15.11673424","TLE_LINE2":"2 46769  53.0521 231.1914 0001622  44.1577 315.9543 15.11673424 57994","OBJECT_ID":"2020-074AG","COUNTRY_CODE":"US"},{"BSTAR":"0.00019041000000","FILE":"3211038","CLASSIFICATION_TYPE":"U","REF_FRAME":"TEME","PERIOD":"95.593","ELEMENT_SET_NO":"999","OBJECT_NAME":"STARLINK-1932","MEAN_ANOMALY":"305.7744","RCS_SIZE":"LARGE","INCLINATION":"53.0546","NORAD_CAT_ID":"46770","SEMIMAJOR_AXIS":"6925.368","ECCENTRICITY":"0.00017210","ARG_OF_PERICENTER":"54.3405","TIME_SYSTEM":"UTC","CENTER_NAME":"EARTH","PERIAPSIS":"546.041","MEAN_MOTION_DOT":"0.00002555","GP_ID":"189424135","MEAN_MOTION_DDOT":"0.0000000000000","DECAY_DATE":null,"APOAPSIS":"548.425","EPHEMERIS_TYPE":"0","RA_OF_ASC_NODE":"228.5351","TLE_LINE1":"1 46770U 20074AH  21314.90766580  .00002555  00000-0  19041-3 0  9994","REV_AT_EPOCH":"5835","OBJECT_TYPE":"PAYLOAD","SITE":"AFETR","COUNTRY_CODE":"US","TLE_LINE2":"2 46770  53.0546 228.5351 0001721  54.3405 305.7744 15.06393716 58359","OBJECT_ID":"2020-074AH","MEAN_MOTION":"15.06393716","LAUNCH_DATE":"2020-10-24","EPOCH":"2021-11-10T21:47:02.325120","MEAN_ELEMENT_THEORY":"SGP4"},{"COUNTRY_CODE":"US","OBJECT_ID":"2020-074AK","TLE_LINE2":"2 46772  53.0526 230.3921 0001592  64.5285 295.5868 15.06411644 58318","MEAN_MOTION":"15.06411644","LAUNCH_DATE":"2020-10-24","EPOCH":"2021-11-10T11:53:56.697504","MEAN_ELEMENT_THEORY":"SGP4","DECAY_DATE":null,"APOAPSIS":"548.280","EPHEMERIS_TYPE":"0","RA_OF_ASC_NODE":"230.3921","REV_AT_EPOCH":"5831","TLE_LINE1":"1 46772U 20074AK  21314.49579511  .00006318  00000-0  44252-3 0  9999","OBJECT_TYPE":"PAYLOAD","SITE":"AFETR","ECCENTRICITY":"0.00015920","ARG_OF_PERICENTER":"64.5285","TIME_SYSTEM":"UTC","CENTER_NAME":"EARTH","PERIAPSIS":"546.075","MEAN_MOTION_DOT":"0.00006318","GP_ID":"189401864","MEAN_MOTION_DDOT":"0.0000000000000","BSTAR":"0.00044252000000","FILE":"3210968","CLASSIFICATION_TYPE":"U","REF_FRAME":"TEME","ELEMENT_SET_NO":"999","PERIOD":"95.591","OBJECT_NAME":"STARLINK-1936","MEAN_ANOMALY":"295.5868","RCS_SIZE":"LARGE","INCLINATION":"53.0526","NORAD_CAT_ID":"46772","SEMIMAJOR_AXIS":"6925.313"}];
